$$SOE
2459580.500000000, A.D. 2022-Jan-01 00:00:00.0000, -3.974558125877154E+08, -3.111511345863805E+08, -8.709016627227306E+07,
2459587.500000000, A.D. 2022-Jan-08 00:00:00.0000, -3.911740887209386E+08, -3.180295580668281E+08, -8.985006665176935E+07,
2459594.500000000, A.D. 2022-Jan-15 00:00:00.0000, -3.847509973711270E+08, -3.247930019731846E+08, -9.257748277139500E+07,
2459601.500000000, A.D. 2022-Jan-22 00:00:00.0000, -3.781887459591715E+08, -3.314389291996614E+08, -9.527140240080565E+07,
2459608.500000000, A.D. 2022-Jan-29 00:00:00.0000, -3.714895947054840E+08, -3.379648382197706E+08, -9.793082358882888E+07,
2459615.500000000, A.D. 2022-Feb-05 00:00:00.0000, -3.646558582054249E+08, -3.443682647590959E+08, -1.005547549010927E+08,
2459622.500000000, A.D. 2022-Feb-12 00:00:00.0000, -3.576899048089547E+08, -3.506467845301544E+08, -1.031422159416588E+08,
2459629.500000000, A.D. 2022-Feb-19 00:00:00.0000, -3.505941551299494E+08, -3.567980146598336E+08, -1.056922378436688E+08,
2459636.500000000, A.D. 2022-Feb-26 00:00:00.0000, -3.433710809964930E+08, -3.628196145314718E+08, -1.082038636677378E+08,
2459643.500000000, A.D. 2022-Mar-05 00:00:00.0000, -3.360232046826268E+08, -3.687092866577722E+08, -1.106761487731503E+08,
2459650.500000000, A.D. 2022-Mar-12 00:00:00.0000, -3.285530981997069E+08, -3.744647776497493E+08, -1.131081611877777E+08,
2459657.500000000, A.D. 2022-Mar-19 00:00:00.0000, -3.209633825765705E+08, -3.800838792529684E+08, -1.154989819811663E+08,
2459664.500000000, A.D. 2022-Mar-26 00:00:00.0000, -3.132567271063254E+08, -3.855644294558791E+08, -1.178477056433347E+08,
2459671.500000000, A.D. 2022-Apr-02 00:00:00.0000, -3.054358484917769E+08, -3.909043137247070E+08, -1.201534404797833E+08,
2459678.500000000, A.D. 2022-Apr-09 00:00:00.0000, -2.975035096168495E+08, -3.961014663589458E+08, -1.224153090468982E+08,
2459685.500000000, A.D. 2022-Apr-16 00:00:00.0000, -2.894625175862666E+08, -4.011538713127558E+08, -1.246324486068424E+08,
2459692.500000000, A.D. 2022-Apr-23 00:00:00.0000, -2.813157223019919E+08, -4.060595613976287E+08, -1.268040113969117E+08,
2459699.500000000, A.D. 2022-Apr-30 00:00:00.0000, -2.730660174463985E+08, -4.108166181113629E+08, -1.289291647254359E+08,
2459706.500000000, A.D. 2022-May-07 00:00:00.0000, -2.647163408099371E+08, -4.154231740672108E+08, -1.310070913369135E+08,
2459713.500000000, A.D. 2022-May-14 00:00:00.0000, -2.562696725752213E+08, -4.198774149849663E+08, -1.330369899259424E+08,
2459720.500000000, A.D. 2022-May-21 00:00:00.0000, -2.477290335895598E+08, -4.241775804841384E+08, -1.350180755514000E+08,
2459727.500000000, A.D. 2022-May-28 00:00:00.0000, -2.390974841048809E+08, -4.283219646364328E+08, -1.369495799846095E+08,
2459734.500000000, A.D. 2022-Jun-04 00:00:00.0000, -2.303781227075485E+08, -4.323089165890582E+08, -1.388307520417306E+08,
2459741.500000000, A.D. 2022-Jun-11 00:00:00.0000, -2.215740852928512E+08, -4.361368412558490E+08, -1.406608579129222E+08,
2459748.500000000, A.D. 2022-Jun-18 00:00:00.0000, -2.126885440451550E+08, -4.398042000625085E+08, -1.424391814904945E+08,
2459755.500000000, A.D. 2022-Jun-25 00:00:00.0000, -2.037247063943653E+08, -4.433095117788643E+08, -1.441650247014018E+08,
2459762.500000000, A.D. 2022-Jul-02 00:00:00.0000, -1.946858138150384E+08, -4.466513535034827E+08, -1.458377078617021E+08,
2459769.500000000, A.D. 2022-Jul-09 00:00:00.0000, -1.855751400784024E+08, -4.498283616231248E+08, -1.474565700741992E+08,
2459776.500000000, A.D. 2022-Jul-16 00:00:00.0000, -1.763959890130600E+08, -4.528392316634595E+08, -1.490209695754278E+08,
2459783.500000000, A.D. 2022-Jul-23 00:00:00.0000, -1.671516939731175E+08, -4.556827169521576E+08, -1.505302838233801E+08,
2459790.500000000, A.D. 2022-Jul-30 00:00:00.0000, -1.578456189294988E+08, -4.583576294472559E+08, -1.519839096071233E+08,
2459797.500000000, A.D. 2022-Aug-06 00:00:00.0000, -1.484811575857608E+08, -4.608628420825721E+08, -1.533812634552514E+08,
2459804.500000000, A.D. 2022-Aug-13 00:00:00.0000, -1.390617313423275E+08, -4.631972898757030E+08, -1.547217820424328E+08,
2459811.500000000, A.D. 2022-Aug-20 00:00:00.0000, -1.295907876792203E+08, -4.653599703013616E+08, -1.560049224907637E+08,
2459818.500000000, A.D. 2022-Aug-27 00:00:00.0000, -1.200717988896333E+08, -4.673499436557149E+08, -1.572301626309076E+08,
2459825.500000000, A.D. 2022-Sep-03 00:00:00.0000, -1.105082609167261E+08, -4.691663335213683E+08, -1.583970012541604E+08,
2459832.500000000, A.D. 2022-Sep-10 00:00:00.0000, -1.009036922036808E+08, -4.708083273083316E+08, -1.595049583612452E+08,
2459839.500000000, A.D. 2022-Sep-17 00:00:00.0000, -9.126163252773921E+07, -4.722751768722436E+08, -1.605535754104268E+08,
2459846.500000000, A.D. 2022-Sep-24 00:00:00.0000, -8.158564175809827E+07, -4.735661992605007E+08, -1.615424155746443E+08,
2459853.500000000, A.D. 2022-Oct-01 00:00:00.0000, -7.187929829822874E+07, -4.746807776084328E+08, -1.624710640316190E+08,
2459860.500000000, A.D. 2022-Oct-08 00:00:00.0000, -6.214619680602740E+07, -4.756183616632330E+08, -1.633391282817808E+08,
2459867.500000000, A.D. 2022-Oct-15 00:00:00.0000, -5.238994612443711E+07, -4.763784667359686E+08, -1.641462383105724E+08,
2459874.500000000, A.D. 2022-Oct-22 00:00:00.0000, -4.261416960464814E+07, -4.769606727645546E+08, -1.648920465324195E+08,
2459881.500000000, A.D. 2022-Oct-29 00:00:00.0000, -3.282250532407333E+07, -4.773646260804416E+08, -1.655762279574234E+08,
2459888.500000000, A.D. 2022-Nov-05 00:00:00.0000, -2.301860410008172E+07, -4.775900411381292E+08, -1.661984805498901E+08,
2459895.500000000, A.D. 2022-Nov-12 00:00:00.0000, -1.320612726531711E+07, -4.776367009405351E+08, -1.667585254954049E+08,
2459902.500000000, A.D. 2022-Nov-19 00:00:00.0000, -3.388744925212821E+06, -4.775044571139886E+08, -1.672561073885011E+08,
2459909.500000000, A.D. 2022-Nov-26 00:00:00.0000, 6.429865563265315E+06, -4.771932300294043E+08, -1.676909943971186E+08,
2459916.500000000, A.D. 2022-Dec-03 00:00:00.0000, 1.624602105658559E+07, -4.767030089799839E+08, -1.680629784193138E+08,
2459923.500000000, A.D. 2022-Dec-10 00:00:00.0000, 2.605603407825470E+07, -4.760338523953449E+08, -1.683718752339420E+08,
2459930.500000000, A.D. 2022-Dec-17 00:00:00.0000, 3.585621428582413E+07, -4.751858881158833E+08, -1.686175246488872E+08,
2459937.500000000, A.D. 2022-Dec-24 00:00:00.0000, 4.564287006104209E+07, -4.741593137927562E+08, -1.687997906620837E+08,
2459944.500000000, A.D. 2022-Dec-31 00:00:00.0000, 5.541231058085811E+07, -4.729543973063350E+08, -1.689185616597606E+08,
2459951.500000000, A.D. 2023-Jan-07 00:00:00.0000, 6.516084849134982E+07, -4.715714762415149E+08, -1.689737505851328E+08,
2459958.500000000, A.D. 2023-Jan-14 00:00:00.0000, 7.488480121620788E+07, -4.700109559234392E+08, -1.689652948567658E+08,
2459965.500000000, A.D. 2023-Jan-21 00:00:00.0000, 8.458049025369723E+07, -4.682733091856632E+08, -1.688931562363785E+08,
2459972.500000000, A.D. 2023-Jan-28 00:00:00.0000, 9.424424212938671E+07, -4.663590780656819E+08, -1.687573209981848E+08,
2459979.500000000, A.D. 2023-Feb-04 00:00:00.0000, 1.038723907953777E+08, -4.642688744002399E+08, -1.685578001332217E+08,
2459986.500000000, A.D. 2023-Feb-11 00:00:00.0000, 1.134612796797822E+08, -4.620033795140104E+08, -1.682946294396578E+08,
2459993.500000000, A.D. 2023-Feb-18 00:00:00.0000, 1.230072633222198E+08, -4.595633438244037E+08, -1.679678695601816E+08,
2460000.500000000, A.D. 2023-Feb-25 00:00:00.0000, 1.325067088572686E+08, -4.569495865237429E+08, -1.675776060033723E+08,
2460007.500000000, A.D. 2023-Mar-04 00:00:00.0000, 1.419559974472445E+08, -4.541629953193649E+08, -1.671239491564213E+08,
2460014.500000000, A.D. 2023-Mar-11 00:00:00.0000, 1.513515256922018E+08, -4.512045262303909E+08, -1.666070342912527E+08,
2460021.500000000, A.D. 2023-Mar-18 00:00:00.0000, 1.606897070637242E+08, -4.480752034898899E+08, -1.660270215719378E+08,
2460028.500000000, A.D. 2023-Mar-25 00:00:00.0000, 1.699669735655220E+08, -4.447761195992100E+08, -1.653840960856643E+08,
2460035.500000000, A.D. 2023-Apr-01 00:00:00.0000, 1.791797780449777E+08, -4.413084351411731E+08, -1.646784679040666E+08,
2460042.500000000, A.D. 2023-Apr-08 00:00:00.0000, 1.883245965394184E+08, -4.376733771275353E+08, -1.639103720183793E+08,
2460049.500000000, A.D. 2023-Apr-15 00:00:00.0000, 1.973979283187252E+08, -4.338722369867539E+08, -1.630800680240736E+08,
2460056.500000000, A.D. 2023-Apr-22 00:00:00.0000, 2.063962954323254E+08, -4.299063712429947E+08, -1.621878399696494E+08,
2460063.500000000, A.D. 2023-Apr-29 00:00:00.0000, 2.153162444952157E+08, -4.257772026329749E+08, -1.612339964361801E+08,
2460070.500000000, A.D. 2023-May-06 00:00:00.0000, 2.241543489523394E+08, -4.214862198798357E+08, -1.602188705409033E+08,
2460077.500000000, A.D. 2023-May-13 00:00:00.0000, 2.329072108437082E+08, -4.170349770179068E+08, -1.591428198485537E+08,
2460084.500000000, A.D. 2023-May-20 00:00:00.0000, 2.415714623034788E+08, -4.124250927595828E+08, -1.580062262522707E+08,
2460091.500000000, A.D. 2023-May-27 00:00:00.0000, 2.501437669855287E+08, -4.076582499338627E+08, -1.568094958444921E+08,
2460098.500000000, A.D. 2023-Jun-03 00:00:00.0000, 2.586208214720917E+08, -4.027361949706767E+08, -1.555530587812546E+08,
2460105.500000000, A.D. 2023-Jun-10 00:00:00.0000, 2.669993566881654E+08, -3.976607374447280E+08, -1.542373691434079E+08,
2460112.500000000, A.D. 2023-Jun-17 00:00:00.0000, 2.752761394098426E+08, -3.924337497387539E+08, -1.528629048080117E+08,
2460119.500000000, A.D. 2023-Jun-24 00:00:00.0000, 2.834479741861035E+08, -3.870571667705748E+08, -1.514301673551359E+08,
2460126.500000000, A.D. 2023-Jul-01 00:00:00.0000, 2.915117059270036E+08, -3.815329849565650E+08, -1.499396819663447E+08,
2460133.500000000, A.D. 2023-Jul-08 00:00:00.0000, 2.994642214835714E+08, -3.758632595908488E+08, -1.483919970948664E+08,
2460140.500000000, A.D. 2023-Jul-15 00:00:00.0000, 3.073024489410313E+08, -3.700501034707662E+08, -1.467876840216948E+08,
$$EOE